NORAD_CAT_ID,OBJECT_NAME,OBJECT_TYPE,EPOCH,MEAN_MOTION,ECCENTRICITY,INCLINATION,RA_OF_ASC_NODE,ARG_OF_PERICENTER,MEAN_ANOMALY,BSTAR,MEAN_MOTION_DOT,MEAN_MOTION_DDOT,TLE_LINE0,TLE_LINE1,TLE_LINE2,SEMIMAJOR_AXIS,PERIOD,APOGEE,PERIGEE,DECAYED
51798.0,STARLINK-3634,PAYLOAD,2022-03-18 22:00:00,15.72928338,0.0001002,53.2174,38.2818,71.5939,230.8373,-0.0011331,-0.00154933,0.0,0 STARLINK-3634,1 51798U 22017AG  22077.91667824 -.00154933  00000-0 -11331-2 0  9991,2 51798  53.2174  38.2818 0001002  71.5939 230.8373 15.72928338  3772,6728.67,91.549,351.209,349.861,0.0
51798.0,STARLINK-3634,PAYLOAD,2022-03-19 02:00:01,15.73078288,0.0001349,53.2173,37.4557,55.897,110.8515,-0.0056427,-0.00723944,0.0,0 STARLINK-3634,1 51798U 22017AG  22078.08335648 -.00723944  00000-0 -56427-2 0  9995,2 51798  53.2173  37.4557 0001349  55.8970 110.8515 15.73078288  4650,6728.2419999999975,91.54,351.015,349.2,0.0
51798.0,STARLINK-3634,PAYLOAD,2022-03-19 14:00:01,15.72309509,0.0001135,53.2173,34.9793,65.9893,53.1656,-0.0057995,-0.00720173,0.0,0 STARLINK-3634,1 51798U 22017AG  22078.58334491 -.00720173  00000-0 -57995-2 0  9997,2 51798  53.2173  34.9793 0001135  65.9893  53.1656 15.72309509  3693,6730.435,91.585,353.064,351.536,0.0
51798.0,STARLINK-3634,PAYLOAD,2022-03-19 22:00:01,15.71798375,0.0001315999999999,53.2175,33.3298,60.7523,146.0151,-0.0059022,-0.00717389,0.0,0 STARLINK-3634,1 51798U 22017AG  22078.91668981 -.00717389  00000-0 -59022-2 0  9996,2 51798  53.2175  33.3298 0001316  60.7523 146.0151 15.71798375  3708,6731.894,91.615,354.645,352.87300000000016,0.0
51798.0,STARLINK-3634,PAYLOAD,2022-03-20 04:00:00,15.71415969,0.0001375,53.2174,32.0957,57.8533,124.1056,-0.0060075,-0.00718343,0.0,0 STARLINK-3634,1 51798U 22017AG  22079.16667824 -.00718343  00000-0 -60075-2 0  9990,2 51798  53.2174  32.0957 0001375  57.8533 124.1056 15.71415969  4828,6732.986,91.637,355.777,353.926,0.0
51798.0,STARLINK-3634,PAYLOAD,2022-03-20 14:00:01,15.70778676,0.0001019,53.2175,30.0363,71.6058,308.3507,-0.0061732,-0.00718425,0.0,0 STARLINK-3634,1 51798U 22017AG  22079.58334491 -.00718425  00000-0 -61732-2 0  9999,2 51798  53.2175  30.0363 0001019  71.6058 308.3507 15.70778676  3696,6734.807,91.674,357.3590000000001,355.986,0.0
51798.0,STARLINK-3634,PAYLOAD,2022-03-20 22:00:01,15.70267989,0.0001200999999999,53.2176,28.3909,62.0063,43.7241,-0.0062916,-0.0071681,0.0,0 STARLINK-3634,1 51798U 22017AG  22079.91668981 -.00716810  00000-0 -62916-2 0  9991,2 51798  53.2176  28.3909 0001201  62.0063  43.7241 15.70267989  3714,6736.267,91.704,358.941,357.3230000000001,0.0
51798.0,STARLINK-3634,PAYLOAD,2022-03-21 04:00:00,15.69887489,0.0001306,53.2173,27.1597,51.4944,28.0478,-0.0064257,-0.00720224,0.0,0 STARLINK-3634,1 51798U 22017AG  22080.16667824 -.00720224  00000-0 -64257-2 0  9999,2 51798  53.2173  27.1597 0001306  51.4944  28.0478 15.69887489  4986,6737.356,91.726,360.101,358.341,0.0
51798.0,STARLINK-3634,PAYLOAD,2022-03-21 14:00:01,15.69250632,0.0001134,53.2174,25.1047,75.4803,199.7615,-0.0066086,-0.00721168,0.0,0 STARLINK-3634,1 51798U 22017AG  22080.58334491 -.00721168  00000-0 -66086-2 0  9996,2 51798  53.2174  25.1047 0001134  75.4803 199.7615 15.69250632  3694,6739.179,91.764,361.8080000000001,360.279,0.0
51798.0,STARLINK-3634,PAYLOAD,2022-03-21 22:00:00,15.68740058,0.0001146,53.2176,23.4632,60.9788,298.133,-0.0067348,-0.00719654,0.0,0 STARLINK-3634,1 51798U 22017AG  22080.91667824 -.00719654  00000-0 -67348-2 0  9991,2 51798  53.2176  23.4632 0001146  60.9788 298.1330 15.68740058  3694,6740.641,91.793,363.278,361.733,0.0
51798.0,STARLINK-3634,PAYLOAD,2022-03-22 04:00:00,15.68357636,0.0001125,53.2175,22.2348,67.8287,263.7823,-0.006848,-0.0072021,0.0,0 STARLINK-3634,1 51798U 22017AG  22081.16667824 -.00720210  00000-0 -68480-2 0  9997,2 51798  53.2175  22.2348 0001125  67.8287 263.7823 15.68357636  5144,6741.736,91.816,364.36,362.843,0.0
51798.0,STARLINK-3634,PAYLOAD,2022-03-22 14:00:01,15.67718123,0.0001278,53.2176,20.1841,61.1081,103.9057,-0.0069872,-0.00716138,0.0,0 STARLINK-3634,1 51798U 22017AG  22081.58334491 -.00716138  00000-0 -69872-2 0  9994,2 51798  53.2176  20.1841 0001278  61.1081 103.9057 15.67718123  3703,6743.57,91.853,366.297,364.573,0.0
51798.0,STARLINK-3634,PAYLOAD,2022-03-22 22:00:01,15.67208632,0.0001367,53.2178,18.5467,55.6359,191.4743,-0.0071415,-0.00716792,0.0,0 STARLINK-3634,1 51798U 22017AG  22081.91668981 -.00716792  00000-0 -71415-2 0  9997,2 51798  53.2178  18.5467 0001367  55.6359 191.4743 15.67208632  3708,6745.031,91.883,367.818,365.974,0.0
51798.0,STARLINK-3634,PAYLOAD,2022-03-23 04:00:00,15.66826139,0.000137,53.2175,17.3208,60.4687,157.6967,-0.0072549999999999,-0.00716894,0.0,0 STARLINK-3634,1 51798U 22017AG  22082.16667824 -.00716894  00000-0 -72550-2 0  9994,2 51798  53.2175  17.3208 0001370  60.4687 157.6967 15.66826139  5292,6746.129,91.906,368.918,367.07,0.0
51798.0,STARLINK-3634,PAYLOAD,2022-03-23 14:00:01,15.66187518,0.0001129,53.2174,15.275,56.1707,353.0992,-0.0074242999999999,-0.00714947,0.0,0 STARLINK-3634,1 51798U 22017AG  22082.58334491 -.00714947  00000-0 -74243-2 0  9999,2 51798  53.2174  15.2750 0001129  56.1707 353.0992 15.66187518  3690,6747.9630000000025,91.943,370.589,369.066,0.0
51798.0,STARLINK-3634,PAYLOAD,2022-03-23 22:00:00,15.65678556,0.0001476,53.2174,13.6413,46.3461,83.1163,-0.0075948,-0.00716412,0.0,0 STARLINK-3634,1 51798U 22017AG  22082.91667824 -.00716412  00000-0 -75948-2 0  9997,2 51798  53.2174  13.6413 0001476  46.3461  83.1163 15.65678556  3700,6749.425,91.973,372.286,370.294,0.0
51798.0,STARLINK-3634,PAYLOAD,2022-03-24 04:00:00,15.65298112,0.0001273,53.2175,12.4187,67.8734,31.3292,-0.0077399,-0.00718742,0.0,0 STARLINK-3634,1 51798U 22017AG  22083.16667824 -.00718742  00000-0 -77399-2 0  9995,2 51798  53.2175  12.4187 0001273  67.8734  31.3292 15.65298112  5450,6750.519,91.995,373.24300000000005,371.524,0.0
51798.0,STARLINK-3634,PAYLOAD,2022-03-24 14:00:01,15.64658251,0.0001291999999999,53.2176,10.3768,53.4636,234.5469,-0.0079039,-0.0071565,0.0,0 STARLINK-3634,1 51798U 22017AG  22083.58334491 -.00715650  00000-0 -79039-2 0  9990,2 51798  53.2176  10.3768 0001292  53.4636 234.5469 15.64658251  3685,6752.359,92.033,375.096,373.351,0.0
51798.0,STARLINK-3634,PAYLOAD,2022-03-24 22:00:00,15.64150331,0.0001302,53.2177,8.7472,46.6716,319.6925,-0.0081069,-0.00719001,0.0,0 STARLINK-3634,1 51798U 22017AG  22083.91667824 -.00719001  00000-0 -81069-2 0  9996,2 51798  53.2177   8.7472 0001302  46.6716 319.6925 15.64150331  3705,6753.821,92.063,376.565,374.806,0.0
51798.0,STARLINK-3634,PAYLOAD,2022-03-25 04:00:00,15.63767116,0.0001291999999999,53.2176,7.5267,53.1088,281.6186,-0.0082186,-0.00717972,0.0,0 STARLINK-3634,1 51798U 22017AG  22084.16667824 -.00717972  00000-0 -82186-2 0  9990,2 51798  53.2176   7.5267 0001292  53.1088 281.6186 15.63767116  5619,6754.924,92.085,377.662,375.916,0.0
51798.0,STARLINK-3634,PAYLOAD,2022-03-25 14:00:01,15.63126741,0.0001505,53.2173,5.4897,45.507,115.7297,-0.0083553,-0.00712194,0.0,0 STARLINK-3634,1 51798U 22017AG  22084.58334491 -.00712194  00000-0 -83553-2 0  9997,2 51798  53.2173   5.4897 0001505  45.5070 115.7297 15.63126741  3694,6756.769,92.123,379.65,377.617,0.0
51798.0,STARLINK-3634,PAYLOAD,2022-03-25 22:00:01,15.62618128,0.0001535,53.2176,3.864,47.6465,190.1707,-0.0085572,-0.00714712,0.0,0 STARLINK-3634,1 51798U 22017AG  22084.91668981 -.00714712  00000-0 -85572-2 0  9999,2 51798  53.2176   3.8640 0001535  47.6465 190.1707 15.62618128  3708,6758.235,92.153,381.137,379.062,0.0
51798.0,STARLINK-3634,PAYLOAD,2022-03-26 04:00:00,15.62235057,0.0001315999999999,53.2175,2.6464,67.3737,137.3626,-0.0086656,-0.0071306,0.0,0 STARLINK-3634,1 51798U 22017AG  22085.16667824 -.00713060  00000-0 -86656-2 0  9991,2 51798  53.2175   2.6464 0001316  67.3737 137.3626 15.62235057  5763,6759.339,92.176,382.094,380.315,0.0
51798.0,STARLINK-3634,PAYLOAD,2022-03-26 14:00:01,15.61596742,0.0001147,53.2173,0.614,54.135,334.8124,-0.0088773,-0.00712491,0.0,0 STARLINK-3634,1 51798U 22017AG  22085.58334491 -.00712491  00000-0 -88773-2 0  9997,2 51798  53.2173   0.6140 0001147  54.1350 334.8124 15.61596742  3672,6761.181,92.213,383.822,382.271,0.0
51798.0,STARLINK-3634,PAYLOAD,2022-03-26 22:00:00,15.61088631,0.0001541999999999,53.2174,358.9922,41.3121,62.3119,-0.0090919,-0.00715263,0.0,0 STARLINK-3634,1 51798U 22017AG  22085.91667824 -.00715263  00000-0 -90919-2 0  9998,2 51798  53.2174 358.9922 0001542  41.3121  62.3119 15.61088631  3707,6762.648,92.243,385.556,383.47,0.0
51798.0,STARLINK-3634,PAYLOAD,2022-03-27 04:00:00,15.60704024,0.0001207,53.2175,357.7771,57.8369,11.3936,-0.0091823,-0.0071191,0.0,0 STARLINK-3634,1 51798U 22017AG  22086.16667824 -.00711910  00000-0 -91823-2 0  9996,2 51798  53.2175 357.7771 0001207  57.8369  11.3936 15.60704024  5928,6763.759,92.266,386.441,384.8080000000001,0.0
51798.0,STARLINK-3634,PAYLOAD,2022-03-27 14:00:01,15.60066953,0.0001365,53.2175,355.7492,55.0986,196.0442,-0.0094074,-0.00711691,0.0,0 STARLINK-3634,1 51798U 22017AG  22086.58334491 -.00711691  00000-0 -94074-2 0  9990,2 51798  53.2175 355.7492 0001365  55.0986 196.0442 15.60066953  3705,6765.601,92.304,388.389,386.542,0.0
51798.0,STARLINK-3634,PAYLOAD,2022-03-27 22:00:01,15.59559355,0.0001441999999999,53.2176,354.1313,45.0955,278.9502,-0.0096534,-0.00715835,0.0,0 STARLINK-3634,1 51798U 22017AG  22086.91668981 -.00715835  00000-0 -96534-2 0  9998,2 51798  53.2176 354.1313 0001442  45.0955 278.9502 15.59559355  3698,6767.068,92.334,389.909,387.958,0.0
51798.0,STARLINK-3634,PAYLOAD,2022-03-28 04:00:00,15.59174487,0.0001225,53.2175,352.9189,64.931,223.2774,-0.0097337,-0.00711567,0.0,0 STARLINK-3634,1 51798U 22017AG  22087.16667824 -.00711567  00000-0 -97337-2 0  9991,2 51798  53.2175 352.9189 0001225  64.9310 223.2774 15.59174487  6087,6768.182,92.357,390.876,389.218,0.0
